{"type": "FeatureCollection", "features": [ {"type": "Feature", "properties": {"norad_id": 37094, "name": "COSMOS 2251 DEB", "group": "cosmos-2251-debris", "lat": -3.2188614535900544, "lon": 94.2267909632756, "alt_km": 738.4161425033371, "timestamp": "2025-12-26T22:28:06.183091+00:00", "meta": {"OBJECT_NAME": "COSMOS 2251 DEB", "OBJECT_ID": "1993-036BFQ", "EPOCH": "2025-12-10T15:45:11.030688", "MEAN_MOTION": 14.37808892, "ECCENTRICITY": 0.0084108, "INCLINATION": 74.1091, "RA_OF_ASC_NODE": 124.9809, "ARG_OF_PERICENTER": 91.4784, "MEAN_ANOMALY": 269.6007, "EPHEMERIS_TYPE": 0, "CLASSIFICATION_TYPE": "U", "NORAD_CAT_ID": 37094, "ELEMENT_SET_NO": 999, "REV_AT_EPOCH": 84476, "BSTAR": 0.0015212, "MEAN_MOTION_DOT": 4.753e-05, "MEAN_MOTION_DDOT": 0}, "tle": {"line1": "1 37094U 93036BFQ 25344.65637767  .00004753  00000+0  15212-2 0  9990", "line2": "2 37094  74.1091 124.9809 0084108  91.4784 269.6007 14.37808892844763"}}, "geometry": {"type": "Point", "coordinates": [94.2267909632756, -3.2188614535900544]}}, {"type": "Feature", "properties": {"norad_id": 37095, "name": "COSMOS 2251 DEB", "group": "cosmos-2251-debris", "lat": -30.00003152064798, "lon": 155.27144000103405, "alt_km": 929.8238332524679, "timestamp": "2025-12-26T22:28:06.183101+00:00", "meta": {"OBJECT_NAME": "COSMOS 2251 DEB", "OBJECT_ID": "1993-036BFR", "EPOCH": "2025-12-20T05:48:30.438144", "MEAN_MOTION": 14.03423265, "ECCENTRICITY": 0.01937256, "INCLINATION": 73.8447, "RA_OF_ASC_NODE": 176.6944, "ARG_OF_PERICENTER": 233.1449, "MEAN_ANOMALY": 125.1788, "EPHEMERIS_TYPE": 0, "CLASSIFICATION_TYPE": "U", "NORAD_CAT_ID": 37095, "ELEMENT_SET_NO": 999, "REV_AT_EPOCH": 62741, "BSTAR": 0.00075143733, "MEAN_MOTION_DOT": 1.362e-05, "MEAN_MOTION_DDOT": 0}, "tle": {"line1": "1 37095U 93036BFR 25354.24201896  .00001362  00000+0  75144-3 0  9991", "line2": "2 37095  73.8447 176.6944 0193725 233.1449 125.1788 14.03423265627411"}}, "geometry": {"type": "Point", "coordinates": [155.27144000103405, -30.00003152064798]}}, {"type": "Feature", "properties": {"norad_id": 37108, "name": "COSMOS 2251 DEB", "group": "cosmos-2251-debris", "lat": 32.24609199061053, "lon": -136.11609921861054, "alt_km": 690.806000437382, "timestamp": "2025-12-26T22:28:06.183112+00:00", "meta": {"OBJECT_NAME": "COSMOS 2251 DEB", "OBJECT_ID": "1993-036BGE", "EPOCH": "2025-12-26T10:08:15.678816", "MEAN_MOTION": 14.41398434, "ECCENTRICITY": 0.0090002, "INCLINATION": 74.044, "RA_OF_ASC_NODE": 55.2329, "ARG_OF_PERICENTER": 128.4252, "MEAN_ANOMALY": 232.5027, "EPHEMERIS_TYPE": 0, "CLASSIFICATION_TYPE": "U", "NORAD_CAT_ID": 37108, "ELEMENT_SET_NO": 999, "REV_AT_EPOCH": 85704, "BSTAR": 0.00095829, "MEAN_MOTION_DOT": 3.233e-05, "MEAN_MOTION_DDOT": 0}, "tle": {"line1": "1 37108U 93036BGE 25360.42240369  .00003233  00000+0  95829-3 0  9992", "line2": "2 37108  74.0440  55.2329 0090002 128.4252 232.5027 14.41398434857047"}}, "geometry": {"type": "Point", "coordinates": [-136.11609921861054, 32.24609199061053]}}, {"type": "Feature", "properties": {"norad_id": 37126, "name": "COSMOS 2251 DEB", "group": "cosmos-2251-debris", "lat": -43.852359052705324, "lon": 162.77374211335706, "alt_km": 578.7681926904734, "timestamp": "2025-12-26T22:28:06.183122+00:00", "meta": {"OBJECT_NAME": "COSMOS 2251 DEB", "OBJECT_ID": "1993-036BGY", "EPOCH": "2025-12-25T14:28:40.048320", "MEAN_MOTION": 14.73111648, "ECCENTRICITY": 0.0122556, "INCLINATION": 73.9501, "RA_OF_ASC_NODE": 329.3283, "ARG_OF_PERICENTER": 204.6714, "MEAN_ANOMALY": 154.8568, "EPHEMERIS_TYPE": 0, "CLASSIFICATION_TYPE": "U", "NORAD_CAT_ID": 37126, "ELEMENT_SET_NO": 999, "REV_AT_EPOCH": 8288, "BSTAR": 0.00020497, "MEAN_MOTION_DOT": 1.448e-05, "MEAN_MOTION_DDOT": 0}, "tle": {"line1": "1 37126U 93036BGY 25359.60324130  .00001448  00000+0  20497-3 0  9994", "line2": "2 37126  73.9501 329.3283 0122556 204.6714 154.8568 14.73111648 82880"}}, "geometry": {"type": "Point", "coordinates": [162.77374211335706, -43.852359052705324]}}, {"type": "Feature", "properties": {"norad_id": 37132, "name": "COSMOS 2251 DEB", "group": "cosmos-2251-debris", "lat": 14.017342764678714, "lon": 22.006258406396352, "alt_km": 663.9423163055944, "timestamp": "2025-12-26T22:28:06.183143+00:00", "meta": {"OBJECT_NAME": "COSMOS 2251 DEB", "OBJECT_ID": "1993-036BHE", "EPOCH": "2025-12-26T07:06:11.287872", "MEAN_MOTION": 14.78001376, "ECCENTRICITY": 0.0040558, "INCLINATION": 74.0015, "RA_OF_ASC_NODE": 207.3729, "ARG_OF_PERICENTER": 0.16, "MEAN_ANOMALY": 359.958, "EPHEMERIS_TYPE": 0, "CLASSIFICATION_TYPE": "U", "NORAD_CAT_ID": 37132, "ELEMENT_SET_NO": 999, "REV_AT_EPOCH": 62616, "BSTAR": 0.00084408, "MEAN_MOTION_DOT": 6.146e-05, "MEAN_MOTION_DDOT": 0}, "tle": {"line1": "1 37132U 93036BHE 25360.29596398  .00006146  00000+0  84408-3 0  9997", "line2": "2 37132  74.0015 207.3729 0040558   0.1600 359.9580 14.78001376626161"}}, "geometry": {"type": "Point", "coordinates": [22.006258406396352, 14.017342764678714]}}, {"type": "Feature", "properties": {"norad_id": 37270, "name": "COSMOS 2251 DEB", "group": "cosmos-2251-debris", "lat": 56.70869124984511, "lon": -21.246304144864443, "alt_km": 1062.257555641233, "timestamp": "2025-12-26T22:28:06.183155+00:00", "meta": {"OBJECT_NAME": "COSMOS 2251 DEB", "OBJECT_ID": "1993-036BHJ", "EPOCH": "2025-12-12T22:45:06.098400", "MEAN_MOTION": 13.59808663, "ECCENTRICITY": 0.03985351, "INCLINATION": 73.9378, "RA_OF_ASC_NODE": 335.5481, "ARG_OF_PERICENTER": 347.3958, "MEAN_ANOMALY": 11.7404, "EPHEMERIS_TYPE": 0, "CLASSIFICATION_TYPE": "U", "NORAD_CAT_ID": 37270, "ELEMENT_SET_NO": 999, "REV_AT_EPOCH": 77072, "BSTAR": 0.0064936549, "MEAN_MOTION_DOT": 8.148e-05, "MEAN_MOTION_DDOT": 0}, "tle": {"line1": "1 37270U 93036BHJ 25346.94798725  .00008148  00000+0  64937-2 0  9992", "line2": "2 37270  73.9378 335.5481 0398535 347.3958  11.7404 13.59808663770728"}}, "geometry": {"type": "Point", "coordinates": [-21.246304144864443, 56.70869124984511]}}, {"type": "Feature", "properties": {"norad_id": 37278, "name": "COSMOS 2251 DEB", "group": "cosmos-2251-debris", "lat": 15.799252784791996, "lon": -31.59599477454487, "alt_km": 968.0588185855804, "timestamp": "2025-12-26T22:28:06.183166+00:00", "meta": {"OBJECT_NAME": "COSMOS 2251 DEB", "OBJECT_ID": "1993-036BHS", "EPOCH": "2025-12-22T06:43:10.079328", "MEAN_MOTION": 14.15136552, "ECCENTRICITY": 0.02988964, "INCLINATION": 73.7862, "RA_OF_ASC_NODE": 332.08, "ARG_OF_PERICENTER": 152.8639, "MEAN_ANOMALY": 274.4968, "EPHEMERIS_TYPE": 0, "CLASSIFICATION_TYPE": "U", "NORAD_CAT_ID": 37278, "ELEMENT_SET_NO": 999, "REV_AT_EPOCH": 63964, "BSTAR": 0.0007998951, "MEAN_MOTION_DOT": 2.366e-05, "MEAN_MOTION_DDOT": 0}, "tle": {"line1": "1 37278U 93036BHS 25356.27997777  .00002366  00000+0  79990-3 0  9997", "line2": "2 37278  73.7862 332.0800 0298896 152.8639 274.4968 14.15136552639645"}}, "geometry": {"type": "Point", "coordinates": [-31.59599477454487, 15.799252784791996]}}, {"type": "Feature", "properties": {"norad_id": 37280, "name": "COSMOS 2251 DEB", "group": "cosmos-2251-debris", "lat": -3.670624195884418, "lon": -147.25707897202457, "alt_km": 746.462697755398, "timestamp": "2025-12-26T22:28:06.183177+00:00", "meta": {"OBJECT_NAME": "COSMOS 2251 DEB", "OBJECT_ID": "1993-036BHU", "EPOCH": "2025-12-24T08:42:55.097280", "MEAN_MOTION": 14.19374869, "ECCENTRICITY": 0.01298569, "INCLINATION": 74.0307, "RA_OF_ASC_NODE": 36.2886, "ARG_OF_PERICENTER": 162.4519, "MEAN_ANOMALY": 198.1176, "EPHEMERIS_TYPE": 0, "CLASSIFICATION_TYPE": "U", "NORAD_CAT_ID": 37280, "ELEMENT_SET_NO": 999, "REV_AT_EPOCH": 57488, "BSTAR": 0.0012209104, "MEAN_MOTION_DOT": 2.768e-05, "MEAN_MOTION_DDOT": 0}, "tle": {"line1": "1 37280U 93036BHU 25358.36313770  .00002768  00000+0  12209-2 0  9992", "line2": "2 37280  74.0307  36.2886 0129856 162.4519 198.1176 14.19374869574882"}}, "geometry": {"type": "Point", "coordinates": [-147.25707897202457, -3.670624195884418]}}, {"type": "Feature", "properties": {"norad_id": 37284, "name": "COSMOS 2251 DEB", "group": "cosmos-2251-debris", "lat": -22.801003918580417, "lon": -41.47871461547543, "alt_km": 826.0239287573959, "timestamp": "2025-12-26T22:28:06.183188+00:00", "meta": {"OBJECT_NAME": "COSMOS 2251 DEB", "OBJECT_ID": "1993-036BHY", "EPOCH": "2025-12-10T18:04:20.469216", "MEAN_MOTION": 14.12686618, "ECCENTRICITY": 0.01605026, "INCLINATION": 74.0123, "RA_OF_ASC_NODE": 160.2425, "ARG_OF_PERICENTER": 312.4867, "MEAN_ANOMALY": 59.8736, "EPHEMERIS_TYPE": 0, "CLASSIFICATION_TYPE": "U", "NORAD_CAT_ID": 37284, "ELEMENT_SET_NO": 999, "REV_AT_EPOCH": 59147, "BSTAR": 0.001592138, "MEAN_MOTION_DOT": 3.31e-05, "MEAN_MOTION_DDOT": 0}, "tle": {"line1": "1 37284U 93036BHY 25344.75301469  .00003310  00000+0  15921-2 0  9994", "line2": "2 37284  74.0123 160.2425 0160502 312.4867  59.8736 14.12686618591475"}}, "geometry": {"type": "Point", "coordinates": [-41.47871461547543, -22.801003918580417]}}, {"type": "Feature", "properties": {"norad_id": 37292, "name": "COSMOS 2251 DEB", "group": "cosmos-2251-debris", "lat": -24.89931897701375, "lon": -147.19390073080902, "alt_km": 1039.1495460963934, "timestamp": "2025-12-26T22:28:06.183198+00:00", "meta": {"OBJECT_NAME": "COSMOS 2251 DEB", "OBJECT_ID": "1993-036BJG", "EPOCH": "2025-12-26T09:31:08.762016", "MEAN_MOTION": 14.03365148, "ECCENTRICITY": 0.0209173, "INCLINATION": 74.1335, "RA_OF_ASC_NODE": 26.1539, "ARG_OF_PERICENTER": 25.0938, "MEAN_ANOMALY": 336.0187, "EPHEMERIS_TYPE": 0, "CLASSIFICATION_TYPE": "U", "NORAD_CAT_ID": 37292, "ELEMENT_SET_NO": 999, "REV_AT_EPOCH": 60040, "BSTAR": 0.0019214, "MEAN_MOTION_DOT": 3.623e-05, "MEAN_MOTION_DDOT": 0}, "tle": {"line1": "1 37292U 93036BJG 25360.39662919  .00003623  00000+0  19214-2 0  9997", "line2": "2 37292  74.1335  26.1539 0209173  25.0938 336.0187 14.03365148600406"}}, "geometry": {"type": "Point", "coordinates": [-147.19390073080902, -24.89931897701375]}}]}